ANDESITE                
1 45726U 20037D   26068.46720933  .00004478  00000+0  31876-3 0  9992
2 45726  97.7890 260.5174 0009953 141.6473 218.5462 15.05115692310662
STARLINK-2519           
1 48305U 21036AF  26068.50183065 -.00000883  00000+0 -40415-4 0  9990
2 48305  53.0546  93.0417 0001353  81.8950 278.2193 15.06399820268137
